{
  "norad_id": 54822,
  "name": "STARLINK-5101",
  "history": [
    {
      "epoch": "2026-03-28T22:00:01.999584Z",
      "apogee_km": 497.3139103252033,
      "perigee_km": 495.62413216518144,
      "latitude_deg": 29.393915345960416,
      "longitude_deg": 13.925972367463528,
      "height_km": 497.4446783709228,
      "semi_major_axis_km": 6874.606021245192,
      "eccentricity": 0.0001229,
      "inclination_deg": 43.0057,
      "raan_deg": 27.1808,
      "arg_perigee_deg": 259.9832,
      "mean_anomaly_deg": 234.2093,
      "mean_motion_rev_day": 15.23109198
    },
    {
      "epoch": "2026-03-29T04:00:01.999584Z",
      "apogee_km": 495.7130669268172,
      "perigee_km": 493.7268112714173,
      "latitude_deg": 38.88174755729841,
      "longitude_deg": -161.49978061489335,
      "height_km": 497.6297853384499,
      "semi_major_axis_km": 6872.856939099117,
      "eccentricity": 0.0001445,
      "inclination_deg": 43.0004,
      "raan_deg": 25.7746,
      "arg_perigee_deg": 293.7363,
      "mean_anomaly_deg": 132.8126,
      "mean_motion_rev_day": 15.23690662
    },
    {
      "epoch": "2026-03-30T04:00:01.999584Z",
      "apogee_km": 493.3597664492645,
      "perigee_km": 492.09003117036445,
      "latitude_deg": 14.15418189241293,
      "longitude_deg": -63.00808502015254,
      "height_km": 492.0411359100604,
      "semi_major_axis_km": 6870.861898809814,
      "eccentricity": 9.24e-05,
      "inclination_deg": 43.0013,
      "raan_deg": 20.1634,
      "arg_perigee_deg": 275.0008,
      "mean_anomaly_deg": 244.041,
      "mean_motion_rev_day": 15.24354344
    },
    {
      "epoch": "2026-03-30T06:00:02.000160Z",
      "apogee_km": 493.41406978861596,
      "perigee_km": 491.6117609028224,
      "latitude_deg": -41.789210718948574,
      "longitude_deg": -5.570027615452663,
      "height_km": 504.40014222021773,
      "semi_major_axis_km": 6870.649915345719,
      "eccentricity": 0.00013116,
      "inclination_deg": 43.001,
      "raan_deg": 19.694,
      "arg_perigee_deg": 260.7345,
      "mean_anomaly_deg": 356.1719,
      "mean_motion_rev_day": 15.24424892
    },
    {
      "epoch": "2026-03-30T14:00:03.000384Z",
      "apogee_km": 492.48013471292415,
      "perigee_km": 490.21499087318807,
      "latitude_deg": -40.40820701598602,
      "longitude_deg": -85.37565343899661,
      "height_km": 502.6014256079928,
      "semi_major_axis_km": 6869.484562793055,
      "eccentricity": 0.00016487,
      "inclination_deg": 43.0016,
      "raan_deg": 17.8185,
      "arg_perigee_deg": 256.8785,
      "mean_anomaly_deg": 31.8108,
      "mean_motion_rev_day": 15.24812818
    },
    {
      "epoch": "2026-03-30T22:00:00.999936Z",
      "apogee_km": 491.2112777315997,
      "perigee_km": 489.3448546215168,
      "latitude_deg": -25.753165521018126,
      "longitude_deg": -173.32287122631405,
      "height_km": 496.20918388663785,
      "semi_major_axis_km": 6868.415066176558,
      "eccentricity": 0.00013587,
      "inclination_deg": 43.001,
      "raan_deg": 15.9436,
      "arg_perigee_deg": 262.4386,
      "mean_anomaly_deg": 58.2637,
      "mean_motion_rev_day": 15.2516898
    },
    {
      "epoch": "2026-03-31T20:00:01.999008Z",
      "apogee_km": 488.3136886875527,
      "perigee_km": 486.53688116821377,
      "latitude_deg": -25.384693740591466,
      "longitude_deg": -148.81847834420537,
      "height_km": 493.34917408275226,
      "semi_major_axis_km": 6865.5622849278825,
      "eccentricity": 0.0001294,
      "inclination_deg": 43.0096,
      "raan_deg": 10.784,
      "arg_perigee_deg": 255.5788,
      "mean_anomaly_deg": 65.7573,
      "mean_motion_rev_day": 15.26119687
    },
    {
      "epoch": "2026-04-01T20:00:01.999008Z",
      "apogee_km": 486.56472727377695,
      "perigee_km": 484.6003307445744,
      "latitude_deg": 37.70946281148773,
      "longitude_deg": -69.51657447931731,
      "height_km": 488.52803344269665,
      "semi_major_axis_km": 6863.719529009175,
      "eccentricity": 0.0001431,
      "inclination_deg": 43.0008,
      "raan_deg": 5.1444,
      "arg_perigee_deg": 257.2143,
      "mean_anomaly_deg": 166.1568,
      "mean_motion_rev_day": 15.26734322
    },
    {
      "epoch": "2026-04-02T20:00:01.999008Z",
      "apogee_km": 486.609991629517,
      "perigee_km": 484.4932300619321,
      "latitude_deg": 9.455768433943081,
      "longitude_deg": 38.09072905513929,
      "height_km": 484.64748238249405,
      "semi_major_axis_km": 6863.688610845724,
      "eccentricity": 0.0001542,
      "inclination_deg": 43.0011,
      "raan_deg": 359.5059,
      "arg_perigee_deg": 258.9877,
      "mean_anomaly_deg": 267.0908,
      "mean_motion_rev_day": 15.26744638
    },
    {
      "epoch": "2026-04-02T22:00:01.999584Z",
      "apogee_km": 486.6314518752215,
      "perigee_km": 484.5712321744786,
      "latitude_deg": -42.92806325672933,
      "longitude_deg": 100.49696508146327,
      "height_km": 497.8256740184945,
      "semi_major_axis_km": 6863.73834202485,
      "eccentricity": 0.00015008,
      "inclination_deg": 43.0009,
      "raan_deg": 359.0366,
      "arg_perigee_deg": 265.1651,
      "mean_anomaly_deg": 359.4926,
      "mean_motion_rev_day": 15.26728045
    },
    {
      "epoch": "2026-04-03T20:00:01.999008Z",
      "apogee_km": 486.6144747679464,
      "perigee_km": 484.5882991961098,
      "latitude_deg": -43.14747480730332,
      "longitude_deg": 130.0590931880811,
      "height_km": 497.9339941067702,
      "semi_major_axis_km": 6863.738386982028,
      "eccentricity": 0.0001476,
      "inclination_deg": 43.0011,
      "raan_deg": 353.8658,
      "arg_perigee_deg": 266.4456,
      "mean_anomaly_deg": 2.3545,
      "mean_motion_rev_day": 15.2672803
    },
    {
      "epoch": "2026-04-03T22:00:01.999584Z",
      "apogee_km": 486.6514061405069,
      "perigee_km": 484.55604337205295,
      "latitude_deg": 4.99354411160353,
      "longitude_deg": -163.50953165706562,
      "height_km": 485.05815624008284,
      "semi_major_axis_km": 6863.74072475628,
      "eccentricity": 0.00015264,
      "inclination_deg": 43.001,
      "raan_deg": 353.3965,
      "arg_perigee_deg": 266.9777,
      "mean_anomaly_deg": 100.3785,
      "mean_motion_rev_day": 15.2672725
    },
    {
      "epoch": "2026-04-05T10:04:54.592320Z",
      "apogee_km": 486.6202079955101,
      "perigee_km": 484.5050903116271,
      "latitude_deg": -2.956239291493904e-05,
      "longitude_deg": -0.04053817619879834,
      "height_km": 485.43074980759195,
      "semi_major_axis_km": 6863.699649153568,
      "eccentricity": 0.00015408,
      "inclination_deg": 43.0024,
      "raan_deg": 344.9129,
      "arg_perigee_deg": 265.0666,
      "mean_anomaly_deg": 95.0009,
      "mean_motion_rev_day": 15.26740955
    },
    {
      "epoch": "2026-04-06T01:47:00.261312Z",
      "apogee_km": 486.5903736497339,
      "perigee_km": 484.58136196632586,
      "latitude_deg": 2.3748398982057845e-05,
      "longitude_deg": 120.10215588776626,
      "height_km": 485.345002894752,
      "semi_major_axis_km": 6863.722867808029,
      "eccentricity": 0.00014635,
      "inclination_deg": 43.0034,
      "raan_deg": 341.224,
      "arg_perigee_deg": 271.0314,
      "mean_anomaly_deg": 89.037,
      "mean_motion_rev_day": 15.26733208
    },
    {
      "epoch": "2026-04-07T09:11:09.169728Z",
      "apogee_km": 486.5166715260457,
      "perigee_km": 484.59291599009066,
      "latitude_deg": 1.0018235022615613e-05,
      "longitude_deg": 0.3948656240138888,
      "height_km": 485.51948900008165,
      "semi_major_axis_km": 6863.691793758067,
      "eccentricity": 0.00014014,
      "inclination_deg": 43.0021,
      "raan_deg": 333.8435,
      "arg_perigee_deg": 258.7456,
      "mean_anomaly_deg": 101.3238,
      "mean_motion_rev_day": 15.26743576
    },
    {
      "epoch": "2026-04-08T08:44:16.621728Z",
      "apogee_km": 486.52757239044604,
      "perigee_km": 484.59255891369776,
      "latitude_deg": 2.6369037752552913e-05,
      "longitude_deg": 0.614080980250554,
      "height_km": 485.15602378339963,
      "semi_major_axis_km": 6863.697065652072,
      "eccentricity": 0.00014096,
      "inclination_deg": 43.0025,
      "raan_deg": 328.311,
      "arg_perigee_deg": 280.7893,
      "mean_anomaly_deg": 79.28,
      "mean_motion_rev_day": 15.26741817
    },
    {
      "epoch": "2026-04-08T21:17:56.537088Z",
      "apogee_km": 486.49209723249714,
      "perigee_km": 484.62723084887693,
      "latitude_deg": 1.0254087900982646e-05,
      "longitude_deg": 168.72888264274425,
      "height_km": 485.2878280881359,
      "semi_major_axis_km": 6863.696664040687,
      "eccentricity": 0.00013585,
      "inclination_deg": 43.0022,
      "raan_deg": 325.358,
      "arg_perigee_deg": 273.0022,
      "mean_anomaly_deg": 87.0674,
      "mean_motion_rev_day": 15.26741951
    },
    {
      "epoch": "2026-04-09T23:59:28.541760Z",
      "apogee_km": 486.4417613861897,
      "perigee_km": 484.67573247050495,
      "latitude_deg": 7.148745354780879e-06,
      "longitude_deg": 120.97631260848426,
      "height_km": 485.32518074604246,
      "semi_major_axis_km": 6863.695746928347,
      "eccentricity": 0.00012865,
      "inclination_deg": 43.0016,
      "raan_deg": 319.085,
      "arg_perigee_deg": 270.6771,
      "mean_anomaly_deg": 89.3933,
      "mean_motion_rev_day": 15.26742257
    },
    {
      "epoch": "2026-04-11T07:23:37.189248Z",
      "apogee_km": 486.6537284474507,
      "perigee_km": 484.41342637098387,
      "latitude_deg": -2.1581106436165744e-05,
      "longitude_deg": 1.2702970780880891,
      "height_km": 485.30081800910835,
      "semi_major_axis_km": 6863.670577409217,
      "eccentricity": 0.0001632,
      "inclination_deg": 43.0022,
      "raan_deg": 311.7047,
      "arg_perigee_deg": 270.5105,
      "mean_anomaly_deg": 89.5559,
      "mean_motion_rev_day": 15.26750655
    }
  ]
}